{
  "norad_id": 61548,
  "name": "STARLINK-32424",
  "history": [
    {
      "epoch": "2026-03-28T19:44:31.875360Z",
      "apogee_km": 476.0046817030916,
      "perigee_km": 474.4299179520767,
      "latitude_deg": -3.169585338123494e-05,
      "longitude_deg": 162.8919436544051,
      "height_km": 475.9807076766169,
      "semi_major_axis_km": 6853.354299827583,
      "eccentricity": 0.00011489,
      "inclination_deg": 53.16,
      "raan_deg": 285.2623,
      "arg_perigee_deg": 80.1378,
      "mean_anomaly_deg": 279.9752,
      "mean_motion_rev_day": 15.30199253
    },
    {
      "epoch": "2026-03-29T22:23:26.205216Z",
      "apogee_km": 476.0764610630167,
      "perigee_km": 474.37819738223607,
      "latitude_deg": -1.8544987720909312e-05,
      "longitude_deg": 116.9132675324211,
      "height_km": 476.0049745504121,
      "semi_major_axis_km": 6853.364329222626,
      "eccentricity": 0.0001239,
      "inclination_deg": 53.1601,
      "raan_deg": 280.1044,
      "arg_perigee_deg": 81.8414,
      "mean_anomaly_deg": 278.2727,
      "mean_motion_rev_day": 15.30195894
    }
  ]
}